0 COSMOS 2251 DEB
1 36372U 93036AYZ 13280.07432139  .00002846  00000-0  10892-2 0  2338
2 36372 074.0191 188.1917 0059336 231.5085 128.0841 14.30132750213501
0 COSMOS 2251 DEB
1 36372U 93036AYZ 13281.05364169  .00002871  00000-0  10987-2 0  2348
2 36372 074.0199 186.4120 0059144 228.1626 131.4582 14.30139007213643
0 COSMOS 2251 DEB
1 36372U 93036AYZ 13283.08222233  .00002889  00000-0  11052-2 0  2352
2 36372 074.0209 182.7242 0058926 223.4043 136.2461 14.30151202213939
0 COSMOS 2251 DEB
1 36372U 93036AYZ 13286.99943874  .00002929  00000-0  11205-2 0  2362
2 36372 074.0179 175.5862 0058241 216.7887 142.9401 14.30175178214492
0 COSMOS 2251 DEB
1 36372U 93036AYZ 13289.02796908  .00002938  00000-0  11237-2 0  2379
2 36372 074.0188 171.8973 0058150 212.4862 147.2723 14.30187435214785
0 COSMOS 2251 DEB
1 36372U 93036AYZ 13290.98653521  .00002962  00000-0  11326-2 0  2386
2 36372 074.0203 168.3374 0057866 207.0202 152.8076 14.30199925215062
0 COSMOS 2251 DEB
1 36372U 93036AYZ 13291.33627485  .00002995  00000-0  11449-2 0  2399
2 36372 074.0234 167.7140 0057926 204.1140 155.7590 14.30203272215116
